*******************************************************************************
JPL/HORIZONS               201 Penelope (A879 PA)          2020-Jun-22 08:38:53
Rec #:     201 (+COV) Soln.date: 2020-Feb-22_15:20:41   # obs: 2832 (1879-2019)
 
IAU76/J2000 helio. ecliptic osc. elements (au, days, deg., period=Julian yrs):
 
  EPOCH=  2453210.5 ! 2004-Jul-24.00 (TDB)         Residual RMS= .26773
   EC= .1805015430113305   QR= 2.196153895865132   TP= 2452442.0048776334
   OM= 157.1754106150206   W=  180.646422414915    IN= 5.763043377902098
   A= 2.679875571621114    MA= 172.6526483264535   ADIST= 3.163597247377097
   PER= 4.38713            N= .224663291           ANGMOM= .027697853
   DAN= 3.16355            DDN= 2.19618            L= 337.8185761
   B= -.06490940000000001  MOID= 1.18660998        TP= 2002-Jun-16.5048776334
 
Asteroid physical parameters (km, seconds, rotational period in hours):
   GM= n.a.                RAD= 42.9385            ROTPER= 3.7474
   H= 8.3                  G= .240                 B-V= .720
                           ALBEDO= .040            STYP= X
 
ASTEROID comments: 
1: soln ref.= JPL#94, OCC=0
2: source=ORB
*******************************************************************************
 
 
*******************************************************************************
Ephemeris / WWW_USER Mon Jun 22 08:38:53 2020 Pasadena, USA      / Horizons
*******************************************************************************
Target body name: 201 Penelope (A879 PA)          {source: JPL#94}
Center body name: Solar System Barycenter (0)     {source: DE431}
Center-site name: BODY CENTER
*******************************************************************************
Start time      : A.D. 1969-Jun-28 00:00:00.0000 TDB
Stop  time      : A.D. 2071-May-04 00:00:00.0000 TDB
Step-size       : 7200 minutes
*******************************************************************************
Center geodetic : 0.00000000,0.00000000,0.0000000 {E-lon(deg),Lat(deg),Alt(km)}
Center cylindric: 0.00000000,0.00000000,0.0000000 {E-lon(deg),Dxy(km),Dz(km)}
Center radii    : (undefined)                                                  
Small perturbers: Yes                             {source: SB431-N16}
Output units    : AU-D
Output type     : GEOMETRIC cartesian states
Output format   : 2 (position and velocity)
Reference frame : Ecliptic of J2000.0
*******************************************************************************
Initial IAU76/J2000 heliocentric ecliptic osculating elements (au, days, deg.):
  EPOCH=  2453210.5 ! 2004-Jul-24.00 (TDB)         Residual RMS= .26773        
   EC= .1805015430113305   QR= 2.196153895865132   TP= 2452442.0048776334      
   OM= 157.1754106150206   W=  180.646422414915    IN= 5.763043377902098       
  Equivalent ICRF heliocentric equatorial cartesian coordinates (au, au/d):
   X=-2.807486595034261E+00  Y= 1.341989057566284E+00  Z= 5.544270711798099E-01
  VX=-4.166061612481248E-03 VY=-7.377676716163841E-03 VZ=-2.244056154917409E-03
Asteroid physical parameters (km, seconds, rotational period in hours):        
   GM= n.a.                RAD= 42.9385            ROTPER= 3.7474              
   H= 8.3                  G= .240                 B-V= .720                   
                           ALBEDO= .040            STYP= X                     
*******************************************************************************
            JDTDB,            Calendar Date (TDB),        delta-T,                      X,                      Y,                      Z,                     VX,                     VY,                     VZ,
******************************************************************************************************************************************************************************************************************
$$SOE
2454120.500000000, A.D. 2007-Jan-20 00:00:00.0000,      65.184477,  2.226089971876134E+00,  8.160948557596387E-02, -9.448394540030948E-02,  2.856558041221018E-04,  1.240666571208221E-02, -1.163449519492132E-03,
2454125.500000000, A.D. 2007-Jan-25 00:00:00.0000,      65.184616,  2.226774798287513E+00,  1.436099813568552E-01, -1.002690001369719E-01, -1.147596810867322E-05,  1.239216567795877E-02, -1.150455168283298E-03,
2454130.500000000, A.D. 2007-Jan-30 00:00:00.0000,      65.184748,  2.225977940645017E+00,  2.055175615750838E-01, -1.059873424722881E-01, -3.069709359460756E-04,  1.236951757571196E-02, -1.136768077357591E-03,
2454135.500000000, A.D. 2007-Feb-04 00:00:00.0000,      65.184874,  2.223708279401550E+00,  2.672917670657149E-01, -1.116355621330373E-01, -6.005519050912999E-04,  1.233883582329277E-02, -1.122409743968026E-03,
2454140.500000000, A.D. 2007-Feb-09 00:00:00.0000,      65.184993,  2.219976059829112E+00,  3.288927394273539E-01, -1.172103581697890E-01, -8.919502365215233E-04,  1.230024619899528E-02, -1.107402386530194E-03,
2454145.500000000, A.D. 2007-Feb-14 00:00:00.0000,      65.185106,  2.214792847877288E+00,  3.902812761650342E-01, -1.227085423544759E-01, -1.180906382479239E-03,  1.225388517378660E-02, -1.091768861252937E-03,
2454150.500000000, A.D. 2007-Feb-19 00:00:00.0000,      65.185212,  2.208171483504896E+00,  4.514188824351774E-01, -1.281270421608182E-01, -1.467170360972486E-03,  1.219989922030878E-02, -1.075532578800145E-03,
2454155.500000000, A.D. 2007-Feb-24 00:00:00.0000,      65.185308,  2.200126031792107E+00,  5.122678192844941E-01, -1.334629033297230E-01, -1.750502169435172E-03,  1.213844410222538E-02, -1.058717421702778E-03,
2454160.500000000, A.D. 2007-Mar-01 00:00:00.0000,      65.185392,  2.190671732132673E+00,  5.727911482975420E-01, -1.387132920244528E-01, -2.030672139169463E-03,  1.206968414930422E-02, -1.041347662911825E-03,
2454165.500000000, A.D. 2007-Mar-06 00:00:00.0000,      65.185465,  2.179824945800987E+00,  6.329527725956112E-01, -1.438754965822090E-01, -2.307461231022611E-03,  1.199379152371760E-02, -1.023447885884243E-03,
2454170.500000000, A.D. 2007-Mar-11 00:00:00.0000,      65.185527,  2.167603102186341E+00,  6.927174741553419E-01, -1.489469288708996E-01, -2.580661273035748E-03,  1.191094548241298E-02, -1.005042906641296E-03,
2454175.500000000, A.D. 2007-Mar-16 00:00:00.0000,      65.185579,  2.154024643980812E+00,  7.520509474390477E-01, -1.539251252619495E-01, -2.850075141653610E-03,  1.182133164019347E-02, -9.861576981857669E-04,
2454180.500000000, A.D. 2007-Mar-21 00:00:00.0000,      65.185621,  2.139108971598056E+00,  8.109198293516845E-01, -1.588077472317758E-01, -3.115516888509945E-03,  1.172514123803128E-02, -9.668173175999219E-04,
2454185.500000000, A.D. 2007-Mar-26 00:00:00.0000,      65.185649,  2.122876387089672E+00,  8.692917255614191E-01, -1.635925816060417E-01, -3.376811814994149E-03,  1.162257042087639E-02, -9.470468361028623E-04,
2454190.500000000, A.D. 2007-Mar-31 00:00:00.0000,      65.185664,  2.105348037814347E+00,  9.271352332411863E-01, -1.682775404621116E-01, -3.633796496981476E-03,  1.151381952886103E-02, -9.268712723115662E-04,
2454195.500000000, A.D. 2007-Apr-05 00:00:00.0000,      65.185666,  2.086545860102620E+00,  9.844199603071523E-01, -1.728606607062665E-01, -3.886318762307431E-03,  1.139909240540984E-02, -9.063155289154471E-04,
2454200.500000000, A.D. 2007-Apr-10 00:00:00.0000,      65.185656,  2.066492523146668E+00,  1.041116541246579E+00, -1.773401033431933E-01, -4.134237623760956E-03,  1.127859572538040E-02, -8.854043329377848E-04,
2454205.500000000, A.D. 2007-Apr-15 00:00:00.0000,      65.185635,  2.045211373330238E+00,  1.097196649642292E+00, -1.817141524560425E-01, -4.377423170528672E-03,  1.115253834599371E-02, -8.641621797212848E-04,
2454210.500000000, A.D. 2007-Apr-20 00:00:00.0000,      65.185604,  2.022726379198946E+00,  1.152633007513868E+00, -1.859812139159512E-01, -4.615756421111511E-03,  1.102113068296538E-02, -8.426132807451206E-04,
2454215.500000000, A.D. 2007-Apr-25 00:00:00.0000,      65.185559,  1.999062077256008E+00,  1.207399391606808E+00, -1.901398138404237E-01, -4.849129140735349E-03,  1.088458411386754E-02, -8.207815153648766E-04,
2454220.500000000, A.D. 2007-Apr-30 00:00:00.0000,      65.185502,  1.974243518753393E+00,  1.261470636769786E+00, -1.941885968203882E-01, -5.077443626298769E-03,  1.074311041017435E-02, -7.986903865540160E-04,
2454225.500000000, A.D. 2007-May-05 00:00:00.0000,      65.185434,  1.948296217632197E+00,  1.314822636565347E+00, -1.981263239359637E-01, -5.300612462414856E-03,  1.059692119865540E-02, -7.763629806217092E-04,
2454230.500000000, A.D. 2007-May-10 00:00:00.0000,      65.185356,  1.921246099745751E+00,  1.367432341262177E+00, -2.019518705802249E-01, -5.518558253038633E-03,  1.044622745285699E-02, -7.538219306356854E-04,
2454235.500000000, A.D. 2007-May-15 00:00:00.0000,      65.185269,  1.893119453478100E+00,  1.419277753364684E+00, -2.056642241088513E-01, -5.731213331954128E-03,  1.029123901700600E-02, -7.310893833693765E-04,
2454240.500000000, A.D. 2007-May-20 00:00:00.0000,      65.185175,  1.863942881861644E+00,  1.470337920846843E+00, -2.092624813340103E-01, -5.938519452714660E-03,  1.013216416373774E-02, -7.081869701213776E-04,
2454245.500000000, A.D. 2007-May-25 00:00:00.0000,      65.185071,  1.833743256292039E+00,  1.520592928255900E+00, -2.127458458823750E-01, -6.140427460540075E-03,  9.969209183954225E-03, -6.851357815005014E-04,
2454250.500000000, A.D. 2007-May-30 00:00:00.0000,      65.184958,  1.802547671918604E+00,  1.570023885843061E+00, -2.161136254360619E-01, -6.336896950943592E-03,  9.802578007772641E-03, -6.619563457340911E-04,
2454255.500000000, A.D. 2007-Jun-04 00:00:00.0000,      65.184837,  1.770383404767655E+00,  1.618612916877445E+00, -2.193652288732824E-01, -6.527895918323950E-03,  9.632471856941814E-03, -6.386686102252690E-04,
